ZHUHAI-1 01 (CAS-4A)    
1 42761U 17034D   25111.81843247  .00096859  00000+0  12481-2 0  9996
2 42761  43.0118 248.7732 0021235 313.0420  46.8664 15.57726292434997
CARTOSAT-2E             
1 42767U 17036C   25112.17156372  .00007092  00000+0  33949-3 0  9994
2 42767  97.4828 172.3144 0001991 323.7776  36.3323 15.19266717434223
FORMOSAT-5              
1 42920U 17049A   25111.88599699  .00000486  00000+0  13463-3 0  9998
2 42920  98.2595 190.6255 0009742 296.6503  63.3694 14.50784346405583
SENTINEL-5P             
1 42969U 17064A   25111.83855324  .00000171  00000+0  10223-3 0  9995
2 42969  98.7549  52.8732 0001162  76.8849 283.2456 14.19512263389782
SKYSAT-C11              
1 42987U 17068A   25111.82452140  .00024477  00000+0  65698-3 0  9998
2 42987  97.3854 245.9344 0000498 114.9511 245.1786 15.37940386418116
SKYSAT-C10              
1 42988U 17068B   25111.32618122  .00016573  00000+0  54664-3 0  9997
2 42988  97.3966 242.1737 0005634  90.4756 269.7131 15.31492969417761
SKYSAT-C9               
1 42989U 17068C   25111.80430574  .00024584  00000+0  72391-3 0  9992
2 42989  97.3894 241.2267 0007736 181.7118 178.4100 15.35017095418053
SKYSAT-C8               
1 42990U 17068D   25111.82243975  .00019356  00000+0  64720-3 0  9991
2 42990  97.3995 241.5836 0000123 157.4548 202.6698 15.31034330417746
SKYSAT-C7               
1 42991U 17068E   25110.31293212  .00129086  00000+0  40589-2 0  9992
2 42991  97.4017 241.1817 0001956 304.8046  55.3012 15.32436340417587
SKYSAT-C6               
1 42992U 17068F   25110.34305854  .00014964  00000+0  51477-3 0  9999
2 42992  97.4026 242.0267 0004033 152.7459 207.3994 15.30162237417604
CARTOSAT-2F             
1 43111U 18004A   25112.20618679  .00008985  15741-7  42576-3 0  9995
2 43111  97.4586 173.1357 0001236 195.7932 164.3264 15.19363571387056
GAOFEN-1 02             
1 43259U 18031A   25112.18317927  .00001753  00000+0  25808-3 0  9996
2 43259  97.7764 175.2762 0003300 268.5955  91.4877 14.76606116380578
GAOFEN-1 03             
1 43260U 18031B   25112.16141500  .00001728  00000+0  25455-3 0  9998
2 43260  97.7758 175.1529 0004683 316.8089  43.2754 14.76595263380561
GAOFEN-1 04             
1 43262U 18031D   25112.20481620  .00001761  00000+0  25896-3 0  9991
2 43262  97.7767 175.3355 0001436 356.3437   3.7763 14.76634215380563
