[
  {
    "OBJECT_NAME": "ZHUHAI-1 01 (CAS-4A)",
    "OBJECT_ID": "2017-034D",
    "EPOCH": "2025-04-21T19:38:32.565408",
    "MEAN_MOTION": 15.57726292,
    "ECCENTRICITY": 0.0021235,
    "INCLINATION": 43.0118,
    "RA_OF_ASC_NODE": 248.7732,
    "ARG_OF_PERICENTER": 313.042,
    "MEAN_ANOMALY": 46.8664,
    "EPHEMERIS_TYPE": 0,
    "CLASSIFICATION_TYPE": "U",
    "NORAD_CAT_ID": 42761,
    "ELEMENT_SET_NO": 999,
    "REV_AT_EPOCH": 43499,
    "BSTAR": 0.0012481,
    "MEAN_MOTION_DOT": 0.00096859,
    "MEAN_MOTION_DDOT": 0
  },
  {
    "OBJECT_NAME": "CARTOSAT-2E",
    "OBJECT_ID": "2017-036C",
    "EPOCH": "2025-04-22T04:07:03.105408",
    "MEAN_MOTION": 15.19266717,
    "ECCENTRICITY": 0.0001991,
    "INCLINATION": 97.4828,
    "RA_OF_ASC_NODE": 172.3144,
    "ARG_OF_PERICENTER": 323.7776,
    "MEAN_ANOMALY": 36.3323,
    "EPHEMERIS_TYPE": 0,
    "CLASSIFICATION_TYPE": "U",
    "NORAD_CAT_ID": 42767,
    "ELEMENT_SET_NO": 999,
    "REV_AT_EPOCH": 43422,
    "BSTAR": 0.00033949,
    "MEAN_MOTION_DOT": 0.00007092,
    "MEAN_MOTION_DDOT": 0
  },
  {
    "OBJECT_NAME": "FORMOSAT-5",
    "OBJECT_ID": "2017-049A",
    "EPOCH": "2025-04-21T21:15:50.139936",
    "MEAN_MOTION": 14.50784346,
    "ECCENTRICITY": 0.0009742,
    "INCLINATION": 98.2595,
    "RA_OF_ASC_NODE": 190.6255,
    "ARG_OF_PERICENTER": 296.6503,
    "MEAN_ANOMALY": 63.3694,
    "EPHEMERIS_TYPE": 0,
    "CLASSIFICATION_TYPE": "U",
    "NORAD_CAT_ID": 42920,
    "ELEMENT_SET_NO": 999,
    "REV_AT_EPOCH": 40558,
    "BSTAR": 0.00013463,
    "MEAN_MOTION_DOT": 0.00000486,
    "MEAN_MOTION_DDOT": 0
  },
  {
    "OBJECT_NAME": "SENTINEL-5P",
    "OBJECT_ID": "2017-064A",
    "EPOCH": "2025-04-21T20:07:30.999936",
    "MEAN_MOTION": 14.19512263,
    "ECCENTRICITY": 0.0001162,
    "INCLINATION": 98.7549,
    "RA_OF_ASC_NODE": 52.8732,
    "ARG_OF_PERICENTER": 76.8849,
    "MEAN_ANOMALY": 283.2456,
    "EPHEMERIS_TYPE": 0,
    "CLASSIFICATION_TYPE": "U",
    "NORAD_CAT_ID": 42969,
    "ELEMENT_SET_NO": 999,
    "REV_AT_EPOCH": 38978,
    "BSTAR": 0.00010223,
    "MEAN_MOTION_DOT": 0.00000171,
    "MEAN_MOTION_DDOT": 0
  },
  {
    "OBJECT_NAME": "SKYSAT-C11",
    "OBJECT_ID": "2017-068A",
    "EPOCH": "2025-04-21T19:47:18.648960",
    "MEAN_MOTION": 15.37940386,
    "ECCENTRICITY": 0.0000498,
    "INCLINATION": 97.3854,
    "RA_OF_ASC_NODE": 245.9344,
    "ARG_OF_PERICENTER": 114.9511,
    "MEAN_ANOMALY": 245.1786,
    "EPHEMERIS_TYPE": 0,
    "CLASSIFICATION_TYPE": "U",
    "NORAD_CAT_ID": 42987,
    "ELEMENT_SET_NO": 999,
    "REV_AT_EPOCH": 41811,
    "BSTAR": 0.00065698,
    "MEAN_MOTION_DOT": 0.00024477,
    "MEAN_MOTION_DDOT": 0
  },
  {
    "OBJECT_NAME": "SKYSAT-C10",
    "OBJECT_ID": "2017-068B",
    "EPOCH": "2025-04-21T07:49:42.057408",
    "MEAN_MOTION": 15.31492969,
    "ECCENTRICITY": 0.0005634,
    "INCLINATION": 97.3966,
    "RA_OF_ASC_NODE": 242.1737,
    "ARG_OF_PERICENTER": 90.4756,
    "MEAN_ANOMALY": 269.7131,
    "EPHEMERIS_TYPE": 0,
    "CLASSIFICATION_TYPE": "U",
    "NORAD_CAT_ID": 42988,
    "ELEMENT_SET_NO": 999,
    "REV_AT_EPOCH": 41776,
    "BSTAR": 0.00054664,
    "MEAN_MOTION_DOT": 0.00016573,
    "MEAN_MOTION_DDOT": 0
  },
  {
    "OBJECT_NAME": "SKYSAT-C9",
    "OBJECT_ID": "2017-068C",
    "EPOCH": "2025-04-21T19:18:12.015936",
    "MEAN_MOTION": 15.35017095,
    "ECCENTRICITY": 0.0007736,
    "INCLINATION": 97.3894,
    "RA_OF_ASC_NODE": 241.2267,
    "ARG_OF_PERICENTER": 181.7118,
    "MEAN_ANOMALY": 178.41,
    "EPHEMERIS_TYPE": 0,
    "CLASSIFICATION_TYPE": "U",
    "NORAD_CAT_ID": 42989,
    "ELEMENT_SET_NO": 999,
    "REV_AT_EPOCH": 41805,
    "BSTAR": 0.00072391,
    "MEAN_MOTION_DOT": 0.00024584,
    "MEAN_MOTION_DDOT": 0
  },
  {
    "OBJECT_NAME": "SKYSAT-C8",
    "OBJECT_ID": "2017-068D",
    "EPOCH": "2025-04-21T19:44:18.794400",
    "MEAN_MOTION": 15.3103433,
    "ECCENTRICITY": 0.0000123,
    "INCLINATION": 97.3995,
    "RA_OF_ASC_NODE": 241.5836,
    "ARG_OF_PERICENTER": 157.4548,
    "MEAN_ANOMALY": 202.6698,
    "EPHEMERIS_TYPE": 0,
    "CLASSIFICATION_TYPE": "U",
    "NORAD_CAT_ID": 42990,
    "ELEMENT_SET_NO": 999,
    "REV_AT_EPOCH": 41774,
    "BSTAR": 0.0006472,
    "MEAN_MOTION_DOT": 0.00019356,
    "MEAN_MOTION_DDOT": 0
  },
  {
    "OBJECT_NAME": "SKYSAT-C7",
    "OBJECT_ID": "2017-068E",
    "EPOCH": "2025-04-20T07:30:37.335168",
    "MEAN_MOTION": 15.3243634,
    "ECCENTRICITY": 0.0001956,
    "INCLINATION": 97.4017,
    "RA_OF_ASC_NODE": 241.1817,
    "ARG_OF_PERICENTER": 304.8046,
    "MEAN_ANOMALY": 55.3012,
    "EPHEMERIS_TYPE": 0,
    "CLASSIFICATION_TYPE": "U",
    "NORAD_CAT_ID": 42991,
    "ELEMENT_SET_NO": 999,
    "REV_AT_EPOCH": 41758,
    "BSTAR": 0.0040589,
    "MEAN_MOTION_DOT": 0.00129086,
    "MEAN_MOTION_DDOT": 0
  },
  {
    "OBJECT_NAME": "SKYSAT-C6",
    "OBJECT_ID": "2017-068F",
    "EPOCH": "2025-04-20T08:14:00.257856",
    "MEAN_MOTION": 15.30162237,
    "ECCENTRICITY": 0.0004033,
    "INCLINATION": 97.4026,
    "RA_OF_ASC_NODE": 242.0267,
    "ARG_OF_PERICENTER": 152.7459,
    "MEAN_ANOMALY": 207.3994,
    "EPHEMERIS_TYPE": 0,
    "CLASSIFICATION_TYPE": "U",
    "NORAD_CAT_ID": 42992,
    "ELEMENT_SET_NO": 999,
    "REV_AT_EPOCH": 41760,
    "BSTAR": 0.00051477,
    "MEAN_MOTION_DOT": 0.00014964,
    "MEAN_MOTION_DDOT": 0
  },
  {
    "OBJECT_NAME": "CARTOSAT-2F",
    "OBJECT_ID": "2018-004A",
    "EPOCH": "2025-04-22T04:56:54.538656",
    "MEAN_MOTION": 15.19363571,
    "ECCENTRICITY": 0.0001236,
    "INCLINATION": 97.4586,
    "RA_OF_ASC_NODE": 173.1357,
    "ARG_OF_PERICENTER": 195.7932,
    "MEAN_ANOMALY": 164.3264,
    "EPHEMERIS_TYPE": 0,
    "CLASSIFICATION_TYPE": "U",
    "NORAD_CAT_ID": 43111,
    "ELEMENT_SET_NO": 999,
    "REV_AT_EPOCH": 38705,
    "BSTAR": 0.00042576,
    "MEAN_MOTION_DOT": 0.00008985,
    "MEAN_MOTION_DDOT": 1.5741e-8
  },
  {
    "OBJECT_NAME": "GAOFEN-1 02",
    "OBJECT_ID": "2018-031A",
    "EPOCH": "2025-04-22T04:23:46.688928",
    "MEAN_MOTION": 14.76606116,
    "ECCENTRICITY": 0.00033,
    "INCLINATION": 97.7764,
    "RA_OF_ASC_NODE": 175.2762,
    "ARG_OF_PERICENTER": 268.5955,
    "MEAN_ANOMALY": 91.4877,
    "EPHEMERIS_TYPE": 0,
    "CLASSIFICATION_TYPE": "U",
    "NORAD_CAT_ID": 43259,
    "ELEMENT_SET_NO": 999,
    "REV_AT_EPOCH": 38057,
    "BSTAR": 0.00025808,
    "MEAN_MOTION_DOT": 0.00001753,
    "MEAN_MOTION_DDOT": 0
  },
  {
    "OBJECT_NAME": "GAOFEN-1 03",
    "OBJECT_ID": "2018-031B",
    "EPOCH": "2025-04-22T03:52:26.256000",
    "MEAN_MOTION": 14.76595263,
    "ECCENTRICITY": 0.0004683,
    "INCLINATION": 97.7758,
    "RA_OF_ASC_NODE": 175.1529,
    "ARG_OF_PERICENTER": 316.8089,
    "MEAN_ANOMALY": 43.2754,
    "EPHEMERIS_TYPE": 0,
    "CLASSIFICATION_TYPE": "U",
    "NORAD_CAT_ID": 43260,
    "ELEMENT_SET_NO": 999,
    "REV_AT_EPOCH": 38056,
    "BSTAR": 0.00025455,
    "MEAN_MOTION_DOT": 0.00001728,
    "MEAN_MOTION_DDOT": 0
  },
  {
    "OBJECT_NAME": "GAOFEN-1 04",
    "OBJECT_ID": "2018-031D",
    "EPOCH": "2025-04-22T04:54:56.119680",
    "MEAN_MOTION": 14.76634215,
    "ECCENTRICITY": 0.0001436,
    "INCLINATION": 97.7767,
    "RA_OF_ASC_NODE": 175.3355,
    "ARG_OF_PERICENTER": 356.3437,
    "MEAN_ANOMALY": 3.7763,
    "EPHEMERIS_TYPE": 0,
    "CLASSIFICATION_TYPE": "U",
    "NORAD_CAT_ID": 43262,
    "ELEMENT_SET_NO": 999,
    "REV_AT_EPOCH": 38056,
    "BSTAR": 0.00025896,
    "MEAN_MOTION_DOT": 0.00001761,
    "MEAN_MOTION_DDOT": 0
  }
]